start=new Date('2023-01-05T00:00:00.000Z').valueOf();
sats=[{"CLASSIFICATION_TYPE":"U","DECAY_DATE":null,"NORAD_CAT_ID":"47356","ELEMENT_SET_NO":"999","BSTAR":"0.00012560000000","EPHEMERIS_TYPE":"0","MEAN_ANOMALY":"271.6838","PERIOD":"95.593","MEAN_MOTION_DOT":"0.00001589","OBJECT_NAME":"STARLINK-2049","ECCENTRICITY":"0.00014290","OBJECT_TYPE":"PAYLOAD","ARG_OF_PERICENTER":"88.4315","SEMIMAJOR_AXIS":"6925.383","TLE_LINE1":"1 47356U 21005H   23004.82603622  .00001589  00000-0  12560-3 0  9991","APOAPSIS":"548.238","RCS_SIZE":"LARGE","MEAN_MOTION":"15.06388779","MEAN_MOTION_DDOT":"0.0000000000000","FILE":"3731985","OBJECT_ID":"2021-005H","PERIAPSIS":"546.258","LAUNCH_DATE":"2021-01-20","INCLINATION":"53.0536","EPOCH":"2023-01-04T19:49:29.529408","MEAN_ELEMENT_THEORY":"SGP4","TIME_SYSTEM":"UTC","COUNTRY_CODE":"US","RA_OF_ASC_NODE":"198.4499","REV_AT_EPOCH":"10959","REF_FRAME":"TEME","CENTER_NAME":"EARTH","GP_ID":"222192755","TLE_LINE2":"2 47356  53.0536 198.4499 0001429  88.4315 271.6838 15.06388779109591","SITE":"AFETR"},{"OBJECT_NAME":"STARLINK-2050","ECCENTRICITY":"0.00014510","OBJECT_TYPE":"PAYLOAD","ARG_OF_PERICENTER":"87.3706","SEMIMAJOR_AXIS":"6925.367","TLE_LINE1":"1 47357U 21005J   23003.97180364  .00002963  00000-0  21777-3 0  9997","APOAPSIS":"548.237","RCS_SIZE":"LARGE","CLASSIFICATION_TYPE":"U","DECAY_DATE":null,"NORAD_CAT_ID":"47357","ELEMENT_SET_NO":"999","BSTAR":"0.00021777000000","EPHEMERIS_TYPE":"0","MEAN_ANOMALY":"272.7449","PERIOD":"95.593","MEAN_MOTION_DOT":"0.00002963","COUNTRY_CODE":"US","REV_AT_EPOCH":"10809","RA_OF_ASC_NODE":"232.2959","REF_FRAME":"TEME","CENTER_NAME":"EARTH","GP_ID":"222159201","TLE_LINE2":"2 47357  53.0531 232.2959 0001451  87.3706 272.7449 15.06393840108091","SITE":"AFETR","MEAN_MOTION":"15.06393840","MEAN_MOTION_DDOT":"0.0000000000000","FILE":"3731823","OBJECT_ID":"2021-005J","PERIAPSIS":"546.228","LAUNCH_DATE":"2021-01-20","MEAN_ELEMENT_THEORY":"SGP4","INCLINATION":"53.0531","EPOCH":"2023-01-03T23:19:23.834496","TIME_SYSTEM":"UTC"},{"GP_ID":"222157956","CENTER_NAME":"EARTH","SITE":"AFETR","TLE_LINE2":"2 47358  53.0522 199.8924 0001238  80.1655 279.9473 15.06405918108590","COUNTRY_CODE":"US","REF_FRAME":"TEME","REV_AT_EPOCH":"10859","RA_OF_ASC_NODE":"199.8924","LAUNCH_DATE":"2021-01-20","INCLINATION":"53.0522","EPOCH":"2023-01-04T12:06:18.879552","MEAN_ELEMENT_THEORY":"SGP4","TIME_SYSTEM":"UTC","MEAN_MOTION":"15.06405918","FILE":"3731823","MEAN_MOTION_DDOT":"0.0000000000000","OBJECT_ID":"2021-005K","PERIAPSIS":"546.338","APOAPSIS":"548.053","TLE_LINE1":"1 47358U 21005K   23004.50438518  .00002379  00000-0  17850-3 0  9993","RCS_SIZE":"LARGE","OBJECT_NAME":"STARLINK-2055","ECCENTRICITY":"0.00012380","OBJECT_TYPE":"PAYLOAD","SEMIMAJOR_AXIS":"6925.330","ARG_OF_PERICENTER":"80.1655","BSTAR":"0.00017850000000","EPHEMERIS_TYPE":"0","MEAN_ANOMALY":"279.9473","PERIOD":"95.592","MEAN_MOTION_DOT":"0.00002379","DECAY_DATE":null,"CLASSIFICATION_TYPE":"U","ELEMENT_SET_NO":"999","NORAD_CAT_ID":"47358"},{"OBJECT_TYPE":"PAYLOAD","ARG_OF_PERICENTER":"72.0284","SEMIMAJOR_AXIS":"6925.336","ECCENTRICITY":"0.00015460","OBJECT_NAME":"STARLINK-2069","RCS_SIZE":"LARGE","TLE_LINE1":"1 47359U 21005L   23004.05150866  .00004131  00000-0  29603-3 0  9998","APOAPSIS":"548.272","NORAD_CAT_ID":"47359","ELEMENT_SET_NO":"999","CLASSIFICATION_TYPE":"U","DECAY_DATE":null,"PERIOD":"95.592","MEAN_MOTION_DOT":"0.00004131","EPHEMERIS_TYPE":"0","BSTAR":"0.00029603000000","MEAN_ANOMALY":"288.0873","REV_AT_EPOCH":"10817","RA_OF_ASC_NODE":"226.9301","REF_FRAME":"TEME","COUNTRY_CODE":"US","TLE_LINE2":"2 47359  53.0535 226.9301 0001546  72.0284 288.0873 15.06404130108170","SITE":"AFETR","CENTER_NAME":"EARTH","GP_ID":"222158206","OBJECT_ID":"2021-005L","PERIAPSIS":"546.130","MEAN_MOTION":"15.06404130","FILE":"3731823","MEAN_MOTION_DDOT":"0.0000000000000","LAUNCH_DATE":"2021-01-20","INCLINATION":"53.0535","EPOCH":"2023-01-04T01:14:10.348224","MEAN_ELEMENT_THEORY":"SGP4","TIME_SYSTEM":"UTC"},{"ECCENTRICITY":"0.00014560","OBJECT_NAME":"STARLINK-2070","ARG_OF_PERICENTER":"84.9793","SEMIMAJOR_AXIS":"6925.354","OBJECT_TYPE":"PAYLOAD","APOAPSIS":"548.227","TLE_LINE1":"1 47360U 21005M   23004.52237721  .00000746  00000-0  68956-4 0  9991","RCS_SIZE":"LARGE","DECAY_DATE":null,"CLASSIFICATION_TYPE":"U","ELEMENT_SET_NO":"999","NORAD_CAT_ID":"47360","MEAN_ANOMALY":"275.1362","BSTAR":"0.00006895600000","EPHEMERIS_TYPE":"0","MEAN_MOTION_DOT":"0.00000746","PERIOD":"95.592","COUNTRY_CODE":"US","REF_FRAME":"TEME","REV_AT_EPOCH":"10867","RA_OF_ASC_NODE":"194.8195","GP_ID":"222158457","CENTER_NAME":"EARTH","SITE":"AFETR","TLE_LINE2":"2 47360  53.0523 194.8195 0001456  84.9793 275.1362 15.06398239108677","MEAN_MOTION_DDOT":"0.0000000000000","FILE":"3731823","MEAN_MOTION":"15.06398239","PERIAPSIS":"546.211","OBJECT_ID":"2021-005M","TIME_SYSTEM":"UTC","LAUNCH_DATE":"2021-01-20","MEAN_ELEMENT_THEORY":"SGP4","INCLINATION":"53.0523","EPOCH":"2023-01-04T12:32:13.390944"},{"OBJECT_ID":"2021-005N","PERIAPSIS":"546.352","MEAN_MOTION":"15.06389803","MEAN_MOTION_DDOT":"0.0000000000000","FILE":"3731823","MEAN_ELEMENT_THEORY":"SGP4","LAUNCH_DATE":"2021-01-20","INCLINATION":"53.0520","EPOCH":"2023-01-04T05:56:09.085632","TIME_SYSTEM":"UTC","REF_FRAME":"TEME","RA_OF_ASC_NODE":"201.0544","REV_AT_EPOCH":"10855","COUNTRY_CODE":"US","SITE":"AFETR","TLE_LINE2":"2 47361  53.0520 201.0544 0001289  98.4483 261.6652 15.06389803108550","GP_ID":"222158701","CENTER_NAME":"EARTH","ELEMENT_SET_NO":"999","NORAD_CAT_ID":"47361","DECAY_DATE":null,"CLASSIFICATION_TYPE":"U","PERIOD":"95.593","MEAN_MOTION_DOT":"0.00000170","BSTAR":"0.00003032500000","EPHEMERIS_TYPE":"0","MEAN_ANOMALY":"261.6652","OBJECT_TYPE":"PAYLOAD","SEMIMAJOR_AXIS":"6925.380","ARG_OF_PERICENTER":"98.4483","OBJECT_NAME":"STARLINK-2071","ECCENTRICITY":"0.00012890","RCS_SIZE":"LARGE","APOAPSIS":"548.137","TLE_LINE1":"1 47361U 21005N   23004.24732738  .00000170  00000-0  30325-4 0  9999"},{"EPHEMERIS_TYPE":"0","BSTAR":"0.00038222000000","MEAN_ANOMALY":"271.3526","PERIOD":"95.592","MEAN_MOTION_DOT":"0.00005417","CLASSIFICATION_TYPE":"U","DECAY_DATE":null,"NORAD_CAT_ID":"47362","ELEMENT_SET_NO":"999","TLE_LINE1":"1 47362U 21005P   23004.35882615  .00005417  00000-0  38222-3 0  9994","APOAPSIS":"548.271","RCS_SIZE":"LARGE","OBJECT_NAME":"STARLINK-2076","ECCENTRICITY":"0.00015440","OBJECT_TYPE":"PAYLOAD","SEMIMAJOR_AXIS":"6925.337","ARG_OF_PERICENTER":"88.7639","LAUNCH_DATE":"2021-01-20","INCLINATION":"53.0520","EPOCH":"2023-01-04T08:36:42.579360","MEAN_ELEMENT_THEORY":"SGP4","TIME_SYSTEM":"UTC","MEAN_MOTION":"15.06403798","FILE":"3731823","MEAN_MOTION_DDOT":"0.0000000000000","OBJECT_ID":"2021-005P","PERIAPSIS":"546.133","CENTER_NAME":"EARTH","GP_ID":"222157456","TLE_LINE2":"2 47362  53.0520 230.5575 0001544  88.7639 271.3526 15.06403798108155","SITE":"AFETR","COUNTRY_CODE":"US","RA_OF_ASC_NODE":"230.5575","REV_AT_EPOCH":"10815","REF_FRAME":"TEME"},{"GP_ID":"222157706","CENTER_NAME":"EARTH","SITE":"AFETR","TLE_LINE2":"2 47363  53.0540 230.5217 0001499 105.1324 254.9831 15.06406227108151","COUNTRY_CODE":"US","REF_FRAME":"TEME","RA_OF_ASC_NODE":"230.5217","REV_AT_EPOCH":"10815","LAUNCH_DATE":"2021-01-20","EPOCH":"2023-01-04T08:42:00.688608","INCLINATION":"53.0540","MEAN_ELEMENT_THEORY":"SGP4","TIME_SYSTEM":"UTC","MEAN_MOTION":"15.06406227","MEAN_MOTION_DDOT":"0.0000000000000","FILE":"3731823","OBJECT_ID":"2021-005Q","PERIAPSIS":"546.156","APOAPSIS":"548.233","TLE_LINE1":"1 47363U 21005Q   23004.36250797  .00004117  00000-0  29505-3 0  9996","RCS_SIZE":"LARGE","ECCENTRICITY":"0.00014990","OBJECT_NAME":"STARLINK-2077","OBJECT_TYPE":"PAYLOAD","SEMIMAJOR_AXIS":"6925.329","ARG_OF_PERICENTER":"105.1324","BSTAR":"0.00029505000000","EPHEMERIS_TYPE":"0","MEAN_ANOMALY":"254.9831","PERIOD":"95.592","MEAN_MOTION_DOT":"0.00004117","DECAY_DATE":null,"CLASSIFICATION_TYPE":"U","ELEMENT_SET_NO":"999","NORAD_CAT_ID":"47363"},{"COUNTRY_CODE":"US","REF_FRAME":"TEME","REV_AT_EPOCH":"10823","RA_OF_ASC_NODE":"228.0431","GP_ID":"222194279","CENTER_NAME":"EARTH","SITE":"AFETR","TLE_LINE2":"2 47366  53.0524 228.0431 0001457 108.8525 251.2622 15.06416360108239","MEAN_MOTION":"15.06416360","FILE":"3732067","MEAN_MOTION_DDOT":"0.0000000000000","OBJECT_ID":"2021-005T","PERIAPSIS":"546.154","LAUNCH_DATE":"2021-01-20","INCLINATION":"53.0524","MEAN_ELEMENT_THEORY":"SGP4","EPOCH":"2023-01-04T22:03:27.752544","TIME_SYSTEM":"UTC","ECCENTRICITY":"0.00014570","OBJECT_NAME":"STARLINK-2081","OBJECT_TYPE":"PAYLOAD","ARG_OF_PERICENTER":"108.8525","SEMIMAJOR_AXIS":"6925.298","APOAPSIS":"548.172","TLE_LINE1":"1 47366U 21005T   23004.91907121  .00004023  00000-0  28868-3 0  9997","RCS_SIZE":"LARGE","DECAY_DATE":null,"CLASSIFICATION_TYPE":"U","ELEMENT_SET_NO":"999","NORAD_CAT_ID":"47366","BSTAR":"0.00028868000000","EPHEMERIS_TYPE":"0","MEAN_ANOMALY":"251.2622","PERIOD":"95.591","MEAN_MOTION_DOT":"0.00004023"},{"OBJECT_TYPE":"PAYLOAD","SEMIMAJOR_AXIS":"6925.349","ARG_OF_PERICENTER":"78.1942","OBJECT_NAME":"STARLINK-2082","ECCENTRICITY":"0.00013660","RCS_SIZE":"LARGE","APOAPSIS":"548.160","TLE_LINE1":"1 47367U 21005U   23004.34776120  .00002070  00000-0  15780-3 0  9997","ELEMENT_SET_NO":"999","NORAD_CAT_ID":"47367","DECAY_DATE":null,"CLASSIFICATION_TYPE":"U","PERIOD":"95.592","MEAN_MOTION_DOT":"0.00002070","BSTAR":"0.00015780000000","EPHEMERIS_TYPE":"0","MEAN_ANOMALY":"281.9200","REF_FRAME":"TEME","REV_AT_EPOCH":"10815","RA_OF_ASC_NODE":"230.5933","COUNTRY_CODE":"US","SITE":"AFETR","TLE_LINE2":"2 47367  53.0550 230.5933 0001366  78.1942 281.9200 15.06399697108151","GP_ID":"222159202","CENTER_NAME":"EARTH","OBJECT_ID":"2021-005U","PERIAPSIS":"546.268","MEAN_MOTION":"15.06399697","FILE":"3731823","MEAN_MOTION_DDOT":"0.0000000000000","LAUNCH_DATE":"2021-01-20","EPOCH":"2023-01-04T08:20:46.567680","INCLINATION":"53.0550","MEAN_ELEMENT_THEORY":"SGP4","TIME_SYSTEM":"UTC"}];
